[{"OBJECT_NAME":"STARLINK-3771","OBJECT_ID":"2022-041AJ","EPOCH":"2026-03-09T11:55:13.582272","MEAN_MOTION":15.08837885,"ECCENTRICITY":0.00011544,"INCLINATION":53.216,"RA_OF_ASC_NODE":99.9971,"ARG_OF_PERICENTER":87.7529,"MEAN_ANOMALY":272.3596,"EPHEMERIS_TYPE":0,"CLASSIFICATION_TYPE":"U","NORAD_CAT_ID":52293,"ELEMENT_SET_NO":999,"REV_AT_EPOCH":21447,"BSTAR":-3.7558442e-5,"MEAN_MOTION_DOT":-8.85e-6,"MEAN_MOTION_DDOT":0},{"OBJECT_NAME":"METEOR 2-5 DEB","OBJECT_ID":"1979-095D","EPOCH":"2026-03-07T02:20:18.720096","MEAN_MOTION":15.07655153,"ECCENTRICITY":0.00106351,"INCLINATION":81.1653,"RA_OF_ASC_NODE":357.8549,"ARG_OF_PERICENTER":34.5561,"MEAN_ANOMALY":325.6353,"EPHEMERIS_TYPE":0,"CLASSIFICATION_TYPE":"U","NORAD_CAT_ID":28555,"ELEMENT_SET_NO":999,"REV_AT_EPOCH":23235,"BSTAR":0.011673296,"MEAN_MOTION_DOT":0.00182479,"MEAN_MOTION_DDOT":0}]
